STARLINK-11377 [DTC]    
1 62013U 24213F   26080.25783390  .00246089  00000+0  19670-2 0  9990
2 62013  53.1576 344.1246 0000951  97.8747 262.2379 15.69825755 76739
STARLINK-11385 [DTC]    
1 62014U 24213G   26080.09135934  .00192609  00000+0  15532-2 0  9999
2 62014  53.1567 345.2253 0000913  89.5056 270.6067 15.69785053 76709
STARLINK-11396 [DTC]    
1 62015U 24213H   26079.99335293  .00119066  00000+0  97231-3 0  9990
2 62015  53.1576 345.3073 0001018  77.6728 282.4404 15.69741936 76698
STARLINK-11393 [DTC]    
1 62016U 24213J   26080.24311205  .00217530  00000+0  17438-2 0  9993
2 62016  53.1566 344.0202 0001003  77.6983 282.4147 15.69846143 76730
STARLINK-11343 [DTC]    
1 62017U 24213K   26080.21378650  .00190487  00000+0  15342-2 0  9991
2 62017  53.1576 344.5645 0000959 100.1209 259.9917 15.69822268 76725
STARLINK-11411 [DTC]    
1 62018U 24213L   26080.01298472  .00088337  00000+0  72627-3 0  9993
2 62018  53.1577 345.4412 0000885  89.9384 270.1736 15.69709381 76695
STARLINK-11404 [DTC]    
1 62019U 24213M   26079.97873853  .00193779  00000+0  15656-2 0  9994
2 62019  53.1575 345.9473 0001100  92.3952 267.7192 15.69734723 76681
STARLINK-11378 [DTC]    
1 62020U 24213N   26079.91988220  .00283463  00000+0  22549-2 0  9994
2 62020  53.1573 345.5565 0000787  52.1470 307.9619 15.69823768 76687
STARLINK-32520          
1 62021U 24213P   26079.42272919  .00010450  00000+0  36442-3 0  9994
2 62021  53.1590 118.5859 0001211  80.2877 279.8261 15.30204001 74798
STARLINK-32539          
1 62022U 24213Q   26080.21858447  .00027685  00000+0  94260-3 0  9990
2 62022  53.1575 102.0562 0001172  80.4244 279.6889 15.30226066 75090
STARLINK-32334          
1 62023U 24213R   26079.49742718  .00016530  00000+0  56885-3 0  9990
2 62023  53.1591 117.6284 0001090  84.8400 275.2725 15.30208208 74811
STARLINK-32504          
1 62024U 24213S   26080.29808658  .00013428  00000+0  46454-3 0  9991
2 62024  53.1580 114.0987 0001260  90.0766 270.0379 15.30209133 74933
STARLINK-32493          
1 62025U 24213T   26080.26548586  .00025313  00000+0  86337-3 0  9990
2 62025  53.1581 114.6027 0001320  93.3369 266.7782 15.30217913 74922
STARLINK-32561          
1 62026U 24213U   26079.32469929  .00013034  00000+0  45135-3 0  9997
2 62026  53.1572 118.6837 0001157  80.3426 279.7706 15.30204534 74783
STARLINK-32512          
1 62027U 24213V   26080.28858959  .00024317  00000+0  82995-3 0  9991
2 62027  53.1593 114.0334 0001538  84.0277 276.0899 15.30219179 74938
STARLINK-32637          
1 62032U 24216A   26079.69715892  .00020546  00000+0  75362-3 0  9991
2 62032  43.0020 193.7714 0001246 257.5823 102.4889 15.27598851 75567
