[{"OBJECT_NAME":"STARLINK-11377 [DTC]","OBJECT_ID":"2024-213F","EPOCH":"2026-03-21T06:11:16.848960","MEAN_MOTION":15.69825755,"ECCENTRICITY":9.512e-5,"INCLINATION":53.1576,"RA_OF_ASC_NODE":344.1246,"ARG_OF_PERICENTER":97.8747,"MEAN_ANOMALY":262.2379,"EPHEMERIS_TYPE":0,"CLASSIFICATION_TYPE":"U","NORAD_CAT_ID":62013,"ELEMENT_SET_NO":999,"REV_AT_EPOCH":7673,"BSTAR":0.0019669652,"MEAN_MOTION_DOT":0.00246089,"MEAN_MOTION_DDOT":0},{"OBJECT_NAME":"STARLINK-11385 [DTC]","OBJECT_ID":"2024-213G","EPOCH":"2026-03-21T02:11:33.446976","MEAN_MOTION":15.69785053,"ECCENTRICITY":9.134e-5,"INCLINATION":53.1567,"RA_OF_ASC_NODE":345.2253,"ARG_OF_PERICENTER":89.5056,"MEAN_ANOMALY":270.6067,"EPHEMERIS_TYPE":0,"CLASSIFICATION_TYPE":"U","NORAD_CAT_ID":62014,"ELEMENT_SET_NO":999,"REV_AT_EPOCH":7670,"BSTAR":0.0015531879,"MEAN_MOTION_DOT":0.00192609,"MEAN_MOTION_DDOT":0},{"OBJECT_NAME":"STARLINK-11396 [DTC]","OBJECT_ID":"2024-213H","EPOCH":"2026-03-20T23:50:25.693152","MEAN_MOTION":15.69741936,"ECCENTRICITY":0.00010184,"INCLINATION":53.1576,"RA_OF_ASC_NODE":345.3073,"ARG_OF_PERICENTER":77.6728,"MEAN_ANOMALY":282.4404,"EPHEMERIS_TYPE":0,"CLASSIFICATION_TYPE":"U","NORAD_CAT_ID":62015,"ELEMENT_SET_NO":999,"REV_AT_EPOCH":7669,"BSTAR":0.00097230582,"MEAN_MOTION_DOT":0.00119066,"MEAN_MOTION_DDOT":0},{"OBJECT_NAME":"STARLINK-11393 [DTC]","OBJECT_ID":"2024-213J","EPOCH":"2026-03-21T05:50:04.881120","MEAN_MOTION":15.69846143,"ECCENTRICITY":0.00010039,"INCLINATION":53.1566,"RA_OF_ASC_NODE":344.0202,"ARG_OF_PERICENTER":77.6983,"MEAN_ANOMALY":282.4147,"EPHEMERIS_TYPE":0,"CLASSIFICATION_TYPE":"U","NORAD_CAT_ID":62016,"ELEMENT_SET_NO":999,"REV_AT_EPOCH":7673,"BSTAR":0.0017438247,"MEAN_MOTION_DOT":0.0021753,"MEAN_MOTION_DDOT":0},{"OBJECT_NAME":"STARLINK-11343 [DTC]","OBJECT_ID":"2024-213K","EPOCH":"2026-03-21T05:07:51.153600","MEAN_MOTION":15.69822268,"ECCENTRICITY":9.592e-5,"INCLINATION":53.1576,"RA_OF_ASC_NODE":344.5645,"ARG_OF_PERICENTER":100.1209,"MEAN_ANOMALY":259.9917,"EPHEMERIS_TYPE":0,"CLASSIFICATION_TYPE":"U","NORAD_CAT_ID":62017,"ELEMENT_SET_NO":999,"REV_AT_EPOCH":7672,"BSTAR":0.001534161,"MEAN_MOTION_DOT":0.00190487,"MEAN_MOTION_DDOT":0},{"OBJECT_NAME":"STARLINK-11411 [DTC]","OBJECT_ID":"2024-213L","EPOCH":"2026-03-21T00:18:41.879808","MEAN_MOTION":15.69709381,"ECCENTRICITY":8.85e-5,"INCLINATION":53.1577,"RA_OF_ASC_NODE":345.4412,"ARG_OF_PERICENTER":89.9384,"MEAN_ANOMALY":270.1736,"EPHEMERIS_TYPE":0,"CLASSIFICATION_TYPE":"U","NORAD_CAT_ID":62018,"ELEMENT_SET_NO":999,"REV_AT_EPOCH":7669,"BSTAR":0.00072627162,"MEAN_MOTION_DOT":0.00088337,"MEAN_MOTION_DDOT":0},{"OBJECT_NAME":"STARLINK-11404 [DTC]","OBJECT_ID":"2024-213M","EPOCH":"2026-03-20T23:29:23.008992","MEAN_MOTION":15.69734723,"ECCENTRICITY":0.00011005,"INCLINATION":53.1575,"RA_OF_ASC_NODE":345.9473,"ARG_OF_PERICENTER":92.3952,"MEAN_ANOMALY":267.7192,"EPHEMERIS_TYPE":0,"CLASSIFICATION_TYPE":"U","NORAD_CAT_ID":62019,"ELEMENT_SET_NO":999,"REV_AT_EPOCH":7668,"BSTAR":0.0015656416,"MEAN_MOTION_DOT":0.00193779,"MEAN_MOTION_DDOT":0},{"OBJECT_NAME":"STARLINK-11378 [DTC]","OBJECT_ID":"2024-213N","EPOCH":"2026-03-20T22:04:37.822080","MEAN_MOTION":15.69823768,"ECCENTRICITY":7.874e-5,"INCLINATION":53.1573,"RA_OF_ASC_NODE":345.5565,"ARG_OF_PERICENTER":52.147,"MEAN_ANOMALY":307.9619,"EPHEMERIS_TYPE":0,"CLASSIFICATION_TYPE":"U","NORAD_CAT_ID":62020,"ELEMENT_SET_NO":999,"REV_AT_EPOCH":7668,"BSTAR":0.0022548512,"MEAN_MOTION_DOT":0.00283463,"MEAN_MOTION_DDOT":0},{"OBJECT_NAME":"STARLINK-32520","OBJECT_ID":"2024-213P","EPOCH":"2026-03-20T10:08:43.802016","MEAN_MOTION":15.30204001,"ECCENTRICITY":0.00012115,"INCLINATION":53.159,"RA_OF_ASC_NODE":118.5859,"ARG_OF_PERICENTER":80.2877,"MEAN_ANOMALY":279.8261,"EPHEMERIS_TYPE":0,"CLASSIFICATION_TYPE":"U","NORAD_CAT_ID":62021,"ELEMENT_SET_NO":999,"REV_AT_EPOCH":7479,"BSTAR":0.00036442019,"MEAN_MOTION_DOT":0.0001045,"MEAN_MOTION_DDOT":0},{"OBJECT_NAME":"STARLINK-32539","OBJECT_ID":"2024-213Q","EPOCH":"2026-03-21T05:14:45.698208","MEAN_MOTION":15.30226066,"ECCENTRICITY":0.0001172,"INCLINATION":53.1575,"RA_OF_ASC_NODE":102.0562,"ARG_OF_PERICENTER":80.4244,"MEAN_ANOMALY":279.6889,"EPHEMERIS_TYPE":0,"CLASSIFICATION_TYPE":"U","NORAD_CAT_ID":62022,"ELEMENT_SET_NO":999,"REV_AT_EPOCH":7509,"BSTAR":0.00094260096,"MEAN_MOTION_DOT":0.00027685,"MEAN_MOTION_DDOT":0},{"OBJECT_NAME":"STARLINK-32334","OBJECT_ID":"2024-213R","EPOCH":"2026-03-20T11:56:17.708352","MEAN_MOTION":15.30208208,"ECCENTRICITY":0.00010909,"INCLINATION":53.1591,"RA_OF_ASC_NODE":117.6284,"ARG_OF_PERICENTER":84.84,"MEAN_ANOMALY":275.2725,"EPHEMERIS_TYPE":0,"CLASSIFICATION_TYPE":"U","NORAD_CAT_ID":62023,"ELEMENT_SET_NO":999,"REV_AT_EPOCH":7481,"BSTAR":0.0005688511,"MEAN_MOTION_DOT":0.0001653,"MEAN_MOTION_DDOT":0},{"OBJECT_NAME":"STARLINK-32504","OBJECT_ID":"2024-213S","EPOCH":"2026-03-21T07:09:14.680512","MEAN_MOTION":15.30209133,"ECCENTRICITY":0.00012602,"INCLINATION":53.158,"RA_OF_ASC_NODE":114.0987,"ARG_OF_PERICENTER":90.0766,"MEAN_ANOMALY":270.0379,"EPHEMERIS_TYPE":0,"CLASSIFICATION_TYPE":"U","NORAD_CAT_ID":62024,"ELEMENT_SET_NO":999,"REV_AT_EPOCH":7493,"BSTAR":0.00046453861,"MEAN_MOTION_DOT":0.00013428,"MEAN_MOTION_DDOT":0},{"OBJECT_NAME":"STARLINK-32493","OBJECT_ID":"2024-213T","EPOCH":"2026-03-21T06:22:17.978304","MEAN_MOTION":15.30217913,"ECCENTRICITY":0.00013206,"INCLINATION":53.1581,"RA_OF_ASC_NODE":114.6027,"ARG_OF_PERICENTER":93.3369,"MEAN_ANOMALY":266.7782,"EPHEMERIS_TYPE":0,"CLASSIFICATION_TYPE":"U","NORAD_CAT_ID":62025,"ELEMENT_SET_NO":999,"REV_AT_EPOCH":7492,"BSTAR":0.00086337031,"MEAN_MOTION_DOT":0.00025313,"MEAN_MOTION_DDOT":0},{"OBJECT_NAME":"STARLINK-32561","OBJECT_ID":"2024-213U","EPOCH":"2026-03-20T07:47:34.018656","MEAN_MOTION":15.30204534,"ECCENTRICITY":0.0001157,"INCLINATION":53.1572,"RA_OF_ASC_NODE":118.6837,"ARG_OF_PERICENTER":80.3426,"MEAN_ANOMALY":279.7706,"EPHEMERIS_TYPE":0,"CLASSIFICATION_TYPE":"U","NORAD_CAT_ID":62026,"ELEMENT_SET_NO":999,"REV_AT_EPOCH":7478,"BSTAR":0.00045135,"MEAN_MOTION_DOT":0.00013034,"MEAN_MOTION_DDOT":0},{"OBJECT_NAME":"STARLINK-32512","OBJECT_ID":"2024-213V","EPOCH":"2026-03-21T06:55:34.140576","MEAN_MOTION":15.30219179,"ECCENTRICITY":0.00015386,"INCLINATION":53.1593,"RA_OF_ASC_NODE":114.0334,"ARG_OF_PERICENTER":84.0277,"MEAN_ANOMALY":276.0899,"EPHEMERIS_TYPE":0,"CLASSIFICATION_TYPE":"U","NORAD_CAT_ID":62027,"ELEMENT_SET_NO":999,"REV_AT_EPOCH":7493,"BSTAR":0.00082995192,"MEAN_MOTION_DOT":0.00024317,"MEAN_MOTION_DDOT":0},{"OBJECT_NAME":"STARLINK-32637","OBJECT_ID":"2024-216A","EPOCH":"2026-03-20T16:43:54.530688","MEAN_MOTION":15.27598851,"ECCENTRICITY":0.0001246,"INCLINATION":43.002,"RA_OF_ASC_NODE":193.7714,"ARG_OF_PERICENTER":257.5823,"MEAN_ANOMALY":102.4889,"EPHEMERIS_TYPE":0,"CLASSIFICATION_TYPE":"U","NORAD_CAT_ID":62032,"ELEMENT_SET_NO":999,"REV_AT_EPOCH":7556,"BSTAR":0.0007536231,"MEAN_MOTION_DOT":0.00020546,"MEAN_MOTION_DDOT":0}]
